CCSDS_OMM_VERS = 2.0
CREATION_DATE  = 
ORIGINATOR     = 

OBJECT_NAME    = CZ-2C R/B
OBJECT_ID      = 2022-132E
CENTER_NAME    = EARTH
REF_FRAME      = TEME
TIME_SYSTEM    = UTC
MEAN_ELEMENT_THEORY = SGP/SGP4

EPOCH          = 2026-01-18T23:14:07.977696
MEAN_MOTION    = 15.57391060
ECCENTRICITY   = .00166942
INCLINATION    = 97.2942
RA_OF_ASC_NODE = 20.9520
ARG_OF_PERICENTER = 276.5514
MEAN_ANOMALY   = 83.3841

EPHEMERIS_TYPE = 0
CLASSIFICATION_TYPE = U
NORAD_CAT_ID   = 54039
ELEMENT_SET_NO = 999
REV_AT_EPOCH   = 18262
BSTAR          = .44267984E-3
MEAN_MOTION_DOT = .32592E-3
MEAN_MOTION_DDOT = 0

CCSDS_OMM_VERS = 2.0
CREATION_DATE  = 
ORIGINATOR     = 

OBJECT_NAME    = GSLV R/B
OBJECT_ID      = 2022-138AN
CENTER_NAME    = EARTH
REF_FRAME      = TEME
TIME_SYSTEM    = UTC
MEAN_ELEMENT_THEORY = SGP/SGP4

EPOCH          = 2026-01-19T04:11:00.580992
MEAN_MOTION    = 14.96351842
ECCENTRICITY   = .00206817
INCLINATION    = 87.3833
RA_OF_ASC_NODE = 182.9348
ARG_OF_PERICENTER = 337.5872
MEAN_ANOMALY   = 22.4453

EPHEMERIS_TYPE = 0
CLASSIFICATION_TYPE = U
NORAD_CAT_ID   = 54149
ELEMENT_SET_NO = 999
REV_AT_EPOCH   = 17652
BSTAR          = .23380956E-3
MEAN_MOTION_DOT = .2684E-4
MEAN_MOTION_DDOT = 0

CCSDS_OMM_VERS = 2.0
CREATION_DATE  = 
ORIGINATOR     = 

OBJECT_NAME    = XRISM
OBJECT_ID      = 2023-137A
CENTER_NAME    = EARTH
REF_FRAME      = TEME
TIME_SYSTEM    = UTC
MEAN_ELEMENT_THEORY = SGP/SGP4

EPOCH          = 2026-01-19T07:12:23.455872
MEAN_MOTION    = 15.10802344
ECCENTRICITY   = .00080324
INCLINATION    = 31.0012
RA_OF_ASC_NODE = 242.9558
ARG_OF_PERICENTER = 265.3480
MEAN_ANOMALY   = 94.6241

EPHEMERIS_TYPE = 0
CLASSIFICATION_TYPE = U
NORAD_CAT_ID   = 57800
ELEMENT_SET_NO = 999
REV_AT_EPOCH   = 13031
BSTAR          = .30057011E-3
MEAN_MOTION_DOT = .5216E-4
MEAN_MOTION_DDOT = 0

CCSDS_OMM_VERS = 2.0
CREATION_DATE  = 
ORIGINATOR     = 

OBJECT_NAME    = ACS3
OBJECT_ID      = 2024-077B
CENTER_NAME    = EARTH
REF_FRAME      = TEME
TIME_SYSTEM    = UTC
MEAN_ELEMENT_THEORY = SGP/SGP4

EPOCH          = 2026-01-19T06:44:42.040032
MEAN_MOTION    = 13.87302153
ECCENTRICITY   = .00546313
INCLINATION    = 97.2377
RA_OF_ASC_NODE = 331.4922
ARG_OF_PERICENTER = 240.4023
MEAN_ANOMALY   = 119.1690

EPHEMERIS_TYPE = 0
CLASSIFICATION_TYPE = U
NORAD_CAT_ID   = 59588
ELEMENT_SET_NO = 999
REV_AT_EPOCH   = 8734
BSTAR          = .54120546E-2
MEAN_MOTION_DOT = .6417E-4
MEAN_MOTION_DDOT = 0

CCSDS_OMM_VERS = 2.0
CREATION_DATE  = 
ORIGINATOR     = 

OBJECT_NAME    = SZ-21 MODULE
OBJECT_ID      = 2025-246C
CENTER_NAME    = EARTH
REF_FRAME      = TEME
TIME_SYSTEM    = UTC
MEAN_ELEMENT_THEORY = SGP/SGP4

EPOCH          = 2026-01-18T18:38:37.599648
MEAN_MOTION    = 15.64704861
ECCENTRICITY   = .00026092
INCLINATION    = 41.4757
RA_OF_ASC_NODE = 149.7378
ARG_OF_PERICENTER = 199.7811
MEAN_ANOMALY   = 160.2929

EPHEMERIS_TYPE = 0
CLASSIFICATION_TYPE = U
NORAD_CAT_ID   = 66515
ELEMENT_SET_NO = 999
REV_AT_EPOCH   = 1024
BSTAR          = .28386853E-3
MEAN_MOTION_DOT = .28118E-3
MEAN_MOTION_DDOT = 0

