CZ-2C R/B               
1 54039U 22132E   26018.96814789  .00032592  00000+0  44268-3 0  9997
2 54039  97.2942  20.9520 0016694 276.5514  83.3841 15.57391060182623
GSLV R/B                
1 54149U 22138AN  26019.17431228  .00002684  00000+0  23381-3 0  9994
2 54149  87.3833 182.9348 0020681 337.5872  22.4453 14.96351842176528
XRISM                   
1 57800U 23137A   26019.30027148  .00005216  00000+0  30057-3 0  9990
2 57800  31.0012 242.9558 0008032 265.3480  94.6241 15.10802344130317
ACS3                    
1 59588U 24077B   26019.28104213  .00006417  00000+0  54121-2 0  9996
2 59588  97.2377 331.4922 0054631 240.4023 119.1690 13.87302153 87342
SZ-21 MODULE            
1 66515U 25246C   26018.77682407  .00028118  00000+0  28387-3 0  9990
2 66515  41.4757 149.7378 0002609 199.7811 160.2929 15.64704861 10243
